{"type": "FeatureCollection", "features": [ {"type": "Feature", "properties": {"norad_id": 52912, "name": "GAOFEN-12 03", "group": "resource", "lat": 37.009487432295494, "lon": -123.65028270226303, "alt_km": 626.5449073294822, "timestamp": "2025-12-21T03:56:50.512362+00:00", "meta": {"OBJECT_NAME": "GAOFEN-12 03", "OBJECT_ID": "2022-069A", "EPOCH": "2025-12-20T19:39:49.527072", "MEAN_MOTION": 14.79626376, "ECCENTRICITY": 0.0001973, "INCLINATION": 97.8489, "RA_OF_ASC_NODE": 241.9813, "ARG_OF_PERICENTER": 52.967, "MEAN_ANOMALY": 307.1722, "EPHEMERIS_TYPE": 0, "CLASSIFICATION_TYPE": "U", "NORAD_CAT_ID": 52912, "ELEMENT_SET_NO": 999, "REV_AT_EPOCH": 18823, "BSTAR": 9.2716e-05, "MEAN_MOTION_DOT": 6.44e-06, "MEAN_MOTION_DDOT": 0}, "tle": {"line1": "1 52912U 22069A   25354.81932323  .00000644  00000+0  92716-4 0  9990", "line2": "2 52912  97.8489 241.9813 0001973  52.9670 307.1722 14.79626376188238"}}, "geometry": {"type": "Point", "coordinates": [-123.65028270226303, 37.009487432295494]}}, {"type": "Feature", "properties": {"norad_id": 54754, "name": "SWOT", "group": "resource", "lat": 48.050137306196795, "lon": 81.46267754525819, "alt_km": 888.5260894327466, "timestamp": "2025-12-21T03:56:50.512371+00:00", "meta": {"OBJECT_NAME": "SWOT", "OBJECT_ID": "2022-173A", "EPOCH": "2025-12-20T18:45:09.175680", "MEAN_MOTION": 14.00167977, "ECCENTRICITY": 3.56e-05, "INCLINATION": 77.6109, "RA_OF_ASC_NODE": 276.1346, "ARG_OF_PERICENTER": 91.3101, "MEAN_ANOMALY": 268.8091, "EPHEMERIS_TYPE": 0, "CLASSIFICATION_TYPE": "U", "NORAD_CAT_ID": 54754, "ELEMENT_SET_NO": 999, "REV_AT_EPOCH": 15418, "BSTAR": 5.9072e-06, "MEAN_MOTION_DOT": 6e-08, "MEAN_MOTION_DDOT": 0}, "tle": {"line1": "1 54754U 22173A   25354.78135620  .00000006  00000+0  59072-5 0  9994", "line2": "2 54754  77.6109 276.1346 0000356  91.3101 268.8091 14.00167977154180"}}, "geometry": {"type": "Point", "coordinates": [81.46267754525819, 48.050137306196795]}}, {"type": "Feature", "properties": {"norad_id": 57654, "name": "GAOFEN-12 04", "group": "resource", "lat": -29.786573680444565, "lon": 86.22787777239151, "alt_km": 636.758289382351, "timestamp": "2025-12-21T03:56:50.512380+00:00", "meta": {"OBJECT_NAME": "GAOFEN-12 04", "OBJECT_ID": "2023-123A", "EPOCH": "2025-12-20T20:30:34.892064", "MEAN_MOTION": 14.79720855, "ECCENTRICITY": 0.0001225, "INCLINATION": 97.9127, "RA_OF_ASC_NODE": 270.4888, "ARG_OF_PERICENTER": 77.5399, "MEAN_ANOMALY": 282.5949, "EPHEMERIS_TYPE": 0, "CLASSIFICATION_TYPE": "U", "NORAD_CAT_ID": 57654, "ELEMENT_SET_NO": 999, "REV_AT_EPOCH": 12625, "BSTAR": 0.00012343, "MEAN_MOTION_DOT": 8.76e-06, "MEAN_MOTION_DDOT": 0}, "tle": {"line1": "1 57654U 23123A   25354.85457051  .00000876  00000+0  12343-3 0  9998", "line2": "2 57654  97.9127 270.4888 0001225  77.5399 282.5949 14.79720855126254"}}, "geometry": {"type": "Point", "coordinates": [86.22787777239151, -29.786573680444565]}}, {"type": "Feature", "properties": {"norad_id": 59065, "name": "PARS 1", "group": "resource", "lat": -55.06898806548605, "lon": -22.903182241516824, "alt_km": 451.51979552775083, "timestamp": "2025-12-21T03:56:50.512389+00:00", "meta": {"OBJECT_NAME": "PARS 1", "OBJECT_ID": "2024-039Q", "EPOCH": "2025-12-20T21:57:20.490336", "MEAN_MOTION": 15.41145697, "ECCENTRICITY": 0.0012012, "INCLINATION": 97.4642, "RA_OF_ASC_NODE": 326.0217, "ARG_OF_PERICENTER": 47.3738, "MEAN_ANOMALY": 312.8519, "EPHEMERIS_TYPE": 0, "CLASSIFICATION_TYPE": "U", "NORAD_CAT_ID": 59065, "ELEMENT_SET_NO": 999, "REV_AT_EPOCH": 10114, "BSTAR": 0.00020229, "MEAN_MOTION_DOT": 8.314e-05, "MEAN_MOTION_DDOT": 0}, "tle": {"line1": "1 59065U 24039Q   25354.91482049  .00008314  00000+0  20229-3 0  9992", "line2": "2 59065  97.4642 326.0217 0012012  47.3738 312.8519 15.41145697101147"}}, "geometry": {"type": "Point", "coordinates": [-22.903182241516824, -55.06898806548605]}}, {"type": "Feature", "properties": {"norad_id": 59371, "name": "RESURS-P 4", "group": "resource", "lat": 4.5253571600649725, "lon": 121.89978737842334, "alt_km": 472.1852232019519, "timestamp": "2025-12-21T03:56:50.512399+00:00", "meta": {"OBJECT_NAME": "RESURS-P 4", "OBJECT_ID": "2024-061A", "EPOCH": "2025-12-20T20:54:53.564256", "MEAN_MOTION": 15.32144169, "ECCENTRICITY": 9.82e-05, "INCLINATION": 97.2558, "RA_OF_ASC_NODE": 301.0349, "ARG_OF_PERICENTER": 62.3987, "MEAN_ANOMALY": 297.7355, "EPHEMERIS_TYPE": 0, "CLASSIFICATION_TYPE": "U", "NORAD_CAT_ID": 59371, "ELEMENT_SET_NO": 999, "REV_AT_EPOCH": 9645, "BSTAR": 9.0423e-05, "MEAN_MOTION_DOT": 2.73e-05, "MEAN_MOTION_DDOT": 0}, "tle": {"line1": "1 59371U 24061A   25354.87145329  .00002730  00000+0  90423-4 0  9999", "line2": "2 59371  97.2558 301.0349 0000982  62.3987 297.7355 15.32144169 96455"}}, "geometry": {"type": "Point", "coordinates": [121.89978737842334, 4.5253571600649725]}}, {"type": "Feature", "properties": {"norad_id": 59625, "name": "LEGION 1", "group": "resource", "lat": -70.39865213882102, "lon": 91.5080734790127, "alt_km": 521.1013330643636, "timestamp": "2025-12-21T03:56:50.512408+00:00", "meta": {"OBJECT_NAME": "LEGION 1", "OBJECT_ID": "2024-081A", "EPOCH": "2025-12-20T18:45:44.478720", "MEAN_MOTION": 15.16551215, "ECCENTRICITY": 0.0003621, "INCLINATION": 97.5208, "RA_OF_ASC_NODE": 69.3519, "ARG_OF_PERICENTER": 280.7426, "MEAN_ANOMALY": 79.34, "EPHEMERIS_TYPE": 0, "CLASSIFICATION_TYPE": "U", "NORAD_CAT_ID": 59625, "ELEMENT_SET_NO": 999, "REV_AT_EPOCH": 9049, "BSTAR": 0.0001611, "MEAN_MOTION_DOT": 3.075e-05, "MEAN_MOTION_DDOT": 0}, "tle": {"line1": "1 59625U 24081A   25354.78176480  .00003075  00000+0  16110-3 0  9998", "line2": "2 59625  97.5208  69.3519 0003621 280.7426  79.3400 15.16551215 90491"}}, "geometry": {"type": "Point", "coordinates": [91.5080734790127, -70.39865213882102]}}, {"type": "Feature", "properties": {"norad_id": 59626, "name": "LEGION 2", "group": "resource", "lat": 70.22970744106934, "lon": -88.61480678488273, "alt_km": 512.7675399890722, "timestamp": "2025-12-21T03:56:50.512417+00:00", "meta": {"OBJECT_NAME": "LEGION 2", "OBJECT_ID": "2024-081B", "EPOCH": "2025-12-20T17:58:11.769312", "MEAN_MOTION": 15.16565034, "ECCENTRICITY": 0.0005634, "INCLINATION": 97.5211, "RA_OF_ASC_NODE": 69.407, "ARG_OF_PERICENTER": 258.6698, "MEAN_ANOMALY": 101.3902, "EPHEMERIS_TYPE": 0, "CLASSIFICATION_TYPE": "U", "NORAD_CAT_ID": 59626, "ELEMENT_SET_NO": 999, "REV_AT_EPOCH": 9049, "BSTAR": 0.00017967, "MEAN_MOTION_DOT": 3.44e-05, "MEAN_MOTION_DDOT": 0}, "tle": {"line1": "1 59626U 24081B   25354.74874733  .00003440  00000+0  17967-3 0  9998", "line2": "2 59626  97.5211  69.4070 0005634 258.6698 101.3902 15.16565034 90497"}}, "geometry": {"type": "Point", "coordinates": [-88.61480678488273, 70.22970744106934]}}, {"type": "Feature", "properties": {"norad_id": 60182, "name": "ALOS-4 (DAICHI-4)", "group": "resource", "lat": 79.6341020583313, "lon": 40.31387446843783, "alt_km": 622.6673920381572, "timestamp": "2025-12-21T03:56:50.512426+00:00", "meta": {"OBJECT_NAME": "ALOS-4 (DAICHI-4)", "OBJECT_ID": "2024-123A", "EPOCH": "2025-12-20T19:27:23.065632", "MEAN_MOTION": 14.79476706, "ECCENTRICITY": 0.0001388, "INCLINATION": 97.9224, "RA_OF_ASC_NODE": 89.5428, "ARG_OF_PERICENTER": 101.3368, "MEAN_ANOMALY": 258.8, "EPHEMERIS_TYPE": 0, "CLASSIFICATION_TYPE": "U", "NORAD_CAT_ID": 60182, "ELEMENT_SET_NO": 999, "REV_AT_EPOCH": 7950, "BSTAR": 0.00018387, "MEAN_MOTION_DOT": 1.322e-05, "MEAN_MOTION_DDOT": 0}, "tle": {"line1": "1 60182U 24123A   25354.81068363  .00001322  00000+0  18387-3 0  9990", "line2": "2 60182  97.9224  89.5428 0001388 101.3368 258.8000 14.79476706 79505"}}, "geometry": {"type": "Point", "coordinates": [40.31387446843783, 79.6341020583313]}}, {"type": "Feature", "properties": {"norad_id": 60452, "name": "LEGION 3", "group": "resource", "lat": -21.76950164290999, "lon": 108.51966842284406, "alt_km": 511.64367910326564, "timestamp": "2025-12-21T03:56:50.512435+00:00", "meta": {"OBJECT_NAME": "LEGION 3", "OBJECT_ID": "2024-146A", "EPOCH": "2025-12-20T19:06:32.220000", "MEAN_MOTION": 15.15837973, "ECCENTRICITY": 0.0015676, "INCLINATION": 45.0018, "RA_OF_ASC_NODE": 266.9415, "ARG_OF_PERICENTER": 241.9988, "MEAN_ANOMALY": 117.9305, "EPHEMERIS_TYPE": 0, "CLASSIFICATION_TYPE": "U", "NORAD_CAT_ID": 60452, "ELEMENT_SET_NO": 999, "REV_AT_EPOCH": 7495, "BSTAR": 0.00016083, "MEAN_MOTION_DOT": 2.87e-05, "MEAN_MOTION_DDOT": 0}, "tle": {"line1": "1 60452U 24146A   25354.79620625  .00002870  00000+0  16083-3 0  9997", "line2": "2 60452  45.0018 266.9415 0015676 241.9988 117.9305 15.15837973 74956"}}, "geometry": {"type": "Point", "coordinates": [108.51966842284406, -21.76950164290999]}}, {"type": "Feature", "properties": {"norad_id": 60453, "name": "LEGION 4", "group": "resource", "lat": -20.89946619626538, "lon": -160.82677805816817, "alt_km": 525.5123966590081, "timestamp": "2025-12-21T03:56:50.512445+00:00", "meta": {"OBJECT_NAME": "LEGION 4", "OBJECT_ID": "2024-146B", "EPOCH": "2025-12-20T09:37:35.920416", "MEAN_MOTION": 15.15898192, "ECCENTRICITY": 0.0008728, "INCLINATION": 45.0393, "RA_OF_ASC_NODE": 0.8332, "ARG_OF_PERICENTER": 352.3062, "MEAN_ANOMALY": 7.7682, "EPHEMERIS_TYPE": 0, "CLASSIFICATION_TYPE": "U", "NORAD_CAT_ID": 60453, "ELEMENT_SET_NO": 999, "REV_AT_EPOCH": 7374, "BSTAR": 0.00019574392, "MEAN_MOTION_DOT": 3.551e-05, "MEAN_MOTION_DDOT": 0}, "tle": {"line1": "1 60453U 24146B   25354.40111019  .00003551  00000+0  19574-3 0  9993", "line2": "2 60453  45.0393   0.8332 0008728 352.3062   7.7682 15.15898192 73746"}}, "geometry": {"type": "Point", "coordinates": [-160.82677805816817, -20.89946619626538]}}]}